{
  "type": "FeatureCollection",
  "features": [
    {
      "type": "Feature",
      "properties": {
        "norad_id": 31937,
        "name": "FENGYUN 1C DEB",
        "group": "fengyun-1c-debris",
        "lat": 74.54559842152833,
        "lon": 38.03136270914116,
        "alt_km": 706.8826995731079,
        "timestamp": "2025-12-10T20:49:52.838492+00:00",
        "meta_object_name": "FENGYUN 1C DEB",
        "meta_object_id": "1999-025CMN",
        "meta_epoch": "2025-12-06T23:52:27.149088",
        "meta_mean_motion": 14.78022374,
        "meta_eccentricity": 0.0162921,
        "meta_inclination": 99.2561,
        "meta_ra_of_asc_node": 69.7316,
        "meta_arg_of_pericenter": 315.3928,
        "meta_mean_anomaly": 43.4262,
        "meta_ephemeris_type": 0,
        "meta_classification_type": "U",
        "meta_norad_cat_id": 31937,
        "meta_element_set_no": 999,
        "meta_rev_at_epoch": 65984,
        "meta_bstar": 0.0011794166,
        "meta_mean_motion_dot": 0.00010567,
        "meta_mean_motion_ddot": 0,
        "tle_line1": "1 31937U 99025CMN 25340.99475867  .00010567  00000+0  11794-2 0  9999",
        "tle_line2": "2 31937  99.2561  69.7316 0162921 315.3928  43.4262 14.78022374659842"
      },
      "geometry": {
        "type": "Point",
        "coordinates": [
          38.03136270914116,
          74.54559842152833
        ]
      }
    },
    {
      "type": "Feature",
      "properties": {
        "norad_id": 31938,
        "name": "FENGYUN 1C DEB",
        "group": "fengyun-1c-debris",
        "lat": -81.05552732471013,
        "lon": 103.45232244039359,
        "alt_km": 688.7740649241832,
        "timestamp": "2025-12-10T20:49:52.838504+00:00",
        "meta_object_name": "FENGYUN 1C DEB",
        "meta_object_id": "1999-025CMP",
        "meta_epoch": "2025-12-10T13:12:28.783296",
        "meta_mean_motion": 14.95570671,
        "meta_eccentricity": 0.01528368,
        "meta_inclination": 98.9295,
        "meta_ra_of_asc_node": 15.678,
        "meta_arg_of_pericenter": 73.1927,
        "meta_mean_anomaly": 288.5993,
        "meta_ephemeris_type": 0,
        "meta_classification_type": "U",
        "meta_norad_cat_id": 31938,
        "meta_element_set_no": 999,
        "meta_rev_at_epoch": 99103,
        "meta_bstar": 0.00059331353,
        "meta_mean_motion_dot": 8.252e-05,
        "meta_mean_motion_ddot": 0,
        "tle_line1": "1 31938U 99025CMP 25344.55033314  .00008252  00000+0  59331-3 0  9991",
        "tle_line2": "2 31938  98.9295  15.6780 0152836  73.1927 288.5993 14.95570671991030"
      },
      "geometry": {
        "type": "Point",
        "coordinates": [
          103.45232244039359,
          -81.05552732471013
        ]
      }
    },
    {
      "type": "Feature",
      "properties": {
        "norad_id": 31944,
        "name": "FENGYUN 1C DEB",
        "group": "fengyun-1c-debris",
        "lat": -18.09715544156597,
        "lon": 135.35975197862484,
        "alt_km": 760.6407050471444,
        "timestamp": "2025-12-10T20:49:52.838516+00:00",
        "meta_object_name": "FENGYUN 1C DEB",
        "meta_object_id": "1999-025CMV",
        "meta_epoch": "2025-12-05T05:25:34.154400",
        "meta_mean_motion": 14.11765981,
        "meta_eccentricity": 0.01519652,
        "meta_inclination": 99.203,
        "meta_ra_of_asc_node": 126.5353,
        "meta_arg_of_pericenter": 25.3933,
        "meta_mean_anomaly": 98.7212,
        "meta_ephemeris_type": 0,
        "meta_classification_type": "U",
        "meta_norad_cat_id": 31944,
        "meta_element_set_no": 999,
        "meta_rev_at_epoch": 62804,
        "meta_bstar": 0.00085144569,
        "meta_mean_motion_dot": 1.684e-05,
        "meta_mean_motion_ddot": 0,
        "tle_line1": "1 31944U 99025CMV 25339.22608975  .00001684  00000+0  85145-3 0  9991",
        "tle_line2": "2 31944  99.2030 126.5353 0151965  25.3933  98.7212 14.11765981628045"
      },
      "geometry": {
        "type": "Point",
        "coordinates": [
          135.35975197862484,
          -18.09715544156597
        ]
      }
    },
    {
      "type": "Feature",
      "properties": {
        "norad_id": 31945,
        "name": "FENGYUN 1C DEB",
        "group": "fengyun-1c-debris",
        "lat": -80.98471659058558,
        "lon": 156.98442243782685,
        "alt_km": 790.0680629745202,
        "timestamp": "2025-12-10T20:49:52.838528+00:00",
        "meta_object_name": "FENGYUN 1C DEB",
        "meta_object_id": "1999-025CMW",
        "meta_epoch": "2025-12-05T04:21:02.992896",
        "meta_mean_motion": 14.20730618,
        "meta_eccentricity": 0.00605162,
        "meta_inclination": 98.9642,
        "meta_ra_of_asc_node": 55.4147,
        "meta_arg_of_pericenter": 309.2017,
        "meta_mean_anomaly": 50.3794,
        "meta_ephemeris_type": 0,
        "meta_classification_type": "U",
        "meta_norad_cat_id": 31945,
        "meta_element_set_no": 999,
        "meta_rev_at_epoch": 95088,
        "meta_bstar": 0.0029640312,
        "meta_mean_motion_dot": 6.47e-05,
        "meta_mean_motion_ddot": 0,
        "tle_line1": "1 31945U 99025CMW 25339.18128464  .00006470  00000+0  29640-2 0  9992",
        "tle_line2": "2 31945  98.9642  55.4147 0060516 309.2017  50.3794 14.20730618950888"
      },
      "geometry": {
        "type": "Point",
        "coordinates": [
          156.98442243782685,
          -80.98471659058558
        ]
      }
    },
    {
      "type": "Feature",
      "properties": {
        "norad_id": 31946,
        "name": "FENGYUN 1C DEB",
        "group": "fengyun-1c-debris",
        "lat": 5.760514382781086,
        "lon": -134.00026442958426,
        "alt_km": 867.8713345191418,
        "timestamp": "2025-12-10T20:49:52.838539+00:00",
        "meta_object_name": "FENGYUN 1C DEB",
        "meta_object_id": "1999-025CMX",
        "meta_epoch": "2025-12-10T09:50:51.583200",
        "meta_mean_motion": 14.16415227,
        "meta_eccentricity": 0.00825642,
        "meta_inclination": 98.8976,
        "meta_ra_of_asc_node": 44.6369,
        "meta_arg_of_pericenter": 56.6305,
        "meta_mean_anomaly": 304.2736,
        "meta_ephemeris_type": 0,
        "meta_classification_type": "U",
        "meta_norad_cat_id": 31946,
        "meta_element_set_no": 999,
        "meta_rev_at_epoch": 63975,
        "meta_bstar": 0.0017127269,
        "meta_mean_motion_dot": 3.476e-05,
        "meta_mean_motion_ddot": 0,
        "tle_line1": "1 31946U 99025CMX 25344.41031925  .00003476  00000+0  17127-2 0  9990",
        "tle_line2": "2 31946  98.8976  44.6369 0082564  56.6305 304.2736 14.16415227639752"
      },
      "geometry": {
        "type": "Point",
        "coordinates": [
          -134.00026442958426,
          5.760514382781086
        ]
      }
    },
    {
      "type": "Feature",
      "properties": {
        "norad_id": 31948,
        "name": "FENGYUN 1C DEB",
        "group": "fengyun-1c-debris",
        "lat": 62.1401876523528,
        "lon": -116.59697353835966,
        "alt_km": 790.6395639487873,
        "timestamp": "2025-12-10T20:49:52.838549+00:00",
        "meta_object_name": "FENGYUN 1C DEB",
        "meta_object_id": "1999-025CMZ",
        "meta_epoch": "2025-12-08T09:44:13.179840",
        "meta_mean_motion": 14.28248279,
        "meta_eccentricity": 0.00237817,
        "meta_inclination": 99.3918,
        "meta_ra_of_asc_node": 42.5089,
        "meta_arg_of_pericenter": 35.7447,
        "meta_mean_anomaly": 26.9919,
        "meta_ephemeris_type": 0,
        "meta_classification_type": "U",
        "meta_norad_cat_id": 31948,
        "meta_element_set_no": 999,
        "meta_rev_at_epoch": 94966,
        "meta_bstar": 0.0021945448,
        "meta_mean_motion_dot": 5.441e-05,
        "meta_mean_motion_ddot": 0,
        "tle_line1": "1 31948U 99025CMZ 25342.40570810  .00005441  00000+0  21945-2 0  9997",
        "tle_line2": "2 31948  99.3918  42.5089 0023781  35.7447  26.9919 14.28248279949662"
      },
      "geometry": {
        "type": "Point",
        "coordinates": [
          -116.59697353835966,
          62.1401876523528
        ]
      }
    },
    {
      "type": "Feature",
      "properties": {
        "norad_id": 31949,
        "name": "FENGYUN 1C DEB",
        "group": "fengyun-1c-debris",
        "lat": 14.178175657151977,
        "lon": -31.734321049200314,
        "alt_km": 919.2246584324257,
        "timestamp": "2025-12-10T20:49:52.838559+00:00",
        "meta_object_name": "FENGYUN 1C DEB",
        "meta_object_id": "1999-025CNA",
        "meta_epoch": "2025-11-23T05:03:27.897984",
        "meta_mean_motion": 14.1687356,
        "meta_eccentricity": 0.01252295,
        "meta_inclination": 98.5419,
        "meta_ra_of_asc_node": 313.4803,
        "meta_arg_of_pericenter": 269.0533,
        "meta_mean_anomaly": 89.6292,
        "meta_ephemeris_type": 0,
        "meta_classification_type": "U",
        "meta_norad_cat_id": 31949,
        "meta_element_set_no": 999,
        "meta_rev_at_epoch": 95228,
        "meta_bstar": 0.00041514195,
        "meta_mean_motion_dot": 8.56e-06,
        "meta_mean_motion_ddot": 0,
        "tle_line1": "1 31949U 99025CNA 25327.21073956  .00000856  00000+0  41514-3 0  9999",
        "tle_line2": "2 31949  98.5419 313.4803 0125229 269.0533  89.6292 14.16873560952288"
      },
      "geometry": {
        "type": "Point",
        "coordinates": [
          -31.734321049200314,
          14.178175657151977
        ]
      }
    }
  ]
}